STARLINK-36157          
1 66933U 25286J   25351.58336806 -.01302908  00000+0 -59930-2 0  9997
2 66933  53.1561  26.0795 0001051  66.6210 107.6025 15.85575982  2779
STARLINK-36153          
1 66934U 25286K   25351.58336806 -.01314375  00000+0 -60483-2 0  9994
2 66934  53.1560  26.0745 0000947  68.7810 107.6471 15.85592764  2778
STARLINK-36127          
1 66935U 25286L   25351.58336806 -.01318586  00000+0 -60690-2 0  9993
2 66935  53.1560  26.0696 0000944  68.6940 110.1893 15.85597372  2771
STARLINK-36160          
1 66936U 25286M   25351.58336806 -.01324548  00000+0 -60945-2 0  9992
2 66936  53.1560  26.0655 0001006  68.9444 112.0113 15.85615992  2774
STARLINK-36165          
1 66937U 25286N   25351.58336806 -.01329297  00000+0 -61146-2 0  9993
2 66937  53.1560  26.0608 0001060  68.0408 115.0288 15.85631375  2773
STARLINK-36155          
1 66938U 25286P   25351.58336806 -.01335073  00000+0 -61400-2 0  9996
2 66938  53.1558  26.0562 0000910  69.7611 115.4293 15.85649542  2772
STARLINK-36154          
1 66939U 25286Q   25351.58336806 -.01347738  00000+0 -61985-2 0  9996
2 66939  53.1557  26.0468 0001106  68.4209 121.3169 15.85673539  2775
STARLINK-36121          
1 66940U 25286R   25351.58336806 -.01355320  00000+0 -62327-2 0  9995
2 66940  53.1555  26.0424 0000926  68.6583 123.1287 15.85694119  2771
STARLINK-36088          
1 66941U 25286S   25351.58336806 -.01339995  00000+0 -61635-2 0  9997
2 66941  53.1556  26.0510 0001049  65.8084 121.7922 15.85655521  2775
STARLINK-36100          
1 66942U 25286T   25351.58336806 -.01365668  00000+0 -62811-2 0  9991
2 66942  53.1555  26.0378 0000864  73.8015 120.1183 15.85714556  2703
STARLINK-36109          
1 66943U 25286U   25351.58336806 -.01372647  00000+0 -63166-2 0  9991
2 66943  53.1553  26.0326 0000904  70.4379 125.9441 15.85718349  2700
STARLINK-36112          
1 66944U 25286V   25351.58336806 -.01372243  00000+0 -63088-2 0  9997
2 66944  53.1553  26.0284 0000997  68.9378 129.4784 15.85735579  2777
