CCSDS_OMM_VERS = 2.0
CREATION_DATE  = 
ORIGINATOR     = 

OBJECT_NAME    = STARLINK-36157
OBJECT_ID      = 2025-286J
CENTER_NAME    = EARTH
REF_FRAME      = TEME
TIME_SYSTEM    = UTC
MEAN_ELEMENT_THEORY = SGP/SGP4

EPOCH          = 2025-12-17T14:00:03.000384
MEAN_MOTION    = 15.85575982
ECCENTRICITY   = .00010514
INCLINATION    = 53.1561
RA_OF_ASC_NODE = 26.0795
ARG_OF_PERICENTER = 66.6210
MEAN_ANOMALY   = 107.6025

EPHEMERIS_TYPE = 0
CLASSIFICATION_TYPE = U
NORAD_CAT_ID   = 66933
ELEMENT_SET_NO = 999
REV_AT_EPOCH   = 277
BSTAR          = -.59929753E-2
MEAN_MOTION_DOT = -.1302908E-1
MEAN_MOTION_DDOT = 0

CCSDS_OMM_VERS = 2.0
CREATION_DATE  = 
ORIGINATOR     = 

OBJECT_NAME    = STARLINK-36153
OBJECT_ID      = 2025-286K
CENTER_NAME    = EARTH
REF_FRAME      = TEME
TIME_SYSTEM    = UTC
MEAN_ELEMENT_THEORY = SGP/SGP4

EPOCH          = 2025-12-17T14:00:03.000384
MEAN_MOTION    = 15.85592764
ECCENTRICITY   = .00009474
INCLINATION    = 53.1560
RA_OF_ASC_NODE = 26.0745
ARG_OF_PERICENTER = 68.7810
MEAN_ANOMALY   = 107.6471

EPHEMERIS_TYPE = 0
CLASSIFICATION_TYPE = U
NORAD_CAT_ID   = 66934
ELEMENT_SET_NO = 999
REV_AT_EPOCH   = 277
BSTAR          = -.60483472E-2
MEAN_MOTION_DOT = -.1314375E-1
MEAN_MOTION_DDOT = 0

CCSDS_OMM_VERS = 2.0
CREATION_DATE  = 
ORIGINATOR     = 

OBJECT_NAME    = STARLINK-36127
OBJECT_ID      = 2025-286L
CENTER_NAME    = EARTH
REF_FRAME      = TEME
TIME_SYSTEM    = UTC
MEAN_ELEMENT_THEORY = SGP/SGP4

EPOCH          = 2025-12-17T14:00:03.000384
MEAN_MOTION    = 15.85597372
ECCENTRICITY   = .00009446
INCLINATION    = 53.1560
RA_OF_ASC_NODE = 26.0696
ARG_OF_PERICENTER = 68.6940
MEAN_ANOMALY   = 110.1893

EPHEMERIS_TYPE = 0
CLASSIFICATION_TYPE = U
NORAD_CAT_ID   = 66935
ELEMENT_SET_NO = 999
REV_AT_EPOCH   = 277
BSTAR          = -.60690451E-2
MEAN_MOTION_DOT = -.1318586E-1
MEAN_MOTION_DDOT = 0

CCSDS_OMM_VERS = 2.0
CREATION_DATE  = 
ORIGINATOR     = 

OBJECT_NAME    = STARLINK-36160
OBJECT_ID      = 2025-286M
CENTER_NAME    = EARTH
REF_FRAME      = TEME
TIME_SYSTEM    = UTC
MEAN_ELEMENT_THEORY = SGP/SGP4

EPOCH          = 2025-12-17T14:00:03.000384
MEAN_MOTION    = 15.85615992
ECCENTRICITY   = .00010068
INCLINATION    = 53.1560
RA_OF_ASC_NODE = 26.0655
ARG_OF_PERICENTER = 68.9444
MEAN_ANOMALY   = 112.0113

EPHEMERIS_TYPE = 0
CLASSIFICATION_TYPE = U
NORAD_CAT_ID   = 66936
ELEMENT_SET_NO = 999
REV_AT_EPOCH   = 277
BSTAR          = -.60945206E-2
MEAN_MOTION_DOT = -.1324548E-1
MEAN_MOTION_DDOT = 0

CCSDS_OMM_VERS = 2.0
CREATION_DATE  = 
ORIGINATOR     = 

OBJECT_NAME    = STARLINK-36165
OBJECT_ID      = 2025-286N
CENTER_NAME    = EARTH
REF_FRAME      = TEME
TIME_SYSTEM    = UTC
MEAN_ELEMENT_THEORY = SGP/SGP4

EPOCH          = 2025-12-17T14:00:03.000384
MEAN_MOTION    = 15.85631375
ECCENTRICITY   = .00010607
INCLINATION    = 53.1560
RA_OF_ASC_NODE = 26.0608
ARG_OF_PERICENTER = 68.0408
MEAN_ANOMALY   = 115.0288

EPHEMERIS_TYPE = 0
CLASSIFICATION_TYPE = U
NORAD_CAT_ID   = 66937
ELEMENT_SET_NO = 999
REV_AT_EPOCH   = 277
BSTAR          = -.61146258E-2
MEAN_MOTION_DOT = -.1329297E-1
MEAN_MOTION_DDOT = 0

CCSDS_OMM_VERS = 2.0
CREATION_DATE  = 
ORIGINATOR     = 

OBJECT_NAME    = STARLINK-36155
OBJECT_ID      = 2025-286P
CENTER_NAME    = EARTH
REF_FRAME      = TEME
TIME_SYSTEM    = UTC
MEAN_ELEMENT_THEORY = SGP/SGP4

EPOCH          = 2025-12-17T14:00:03.000384
MEAN_MOTION    = 15.85649542
ECCENTRICITY   = .00009104
INCLINATION    = 53.1558
RA_OF_ASC_NODE = 26.0562
ARG_OF_PERICENTER = 69.7611
MEAN_ANOMALY   = 115.4293

EPHEMERIS_TYPE = 0
CLASSIFICATION_TYPE = U
NORAD_CAT_ID   = 66938
ELEMENT_SET_NO = 999
REV_AT_EPOCH   = 277
BSTAR          = -.61399764E-2
MEAN_MOTION_DOT = -.1335073E-1
MEAN_MOTION_DDOT = 0

CCSDS_OMM_VERS = 2.0
CREATION_DATE  = 
ORIGINATOR     = 

OBJECT_NAME    = STARLINK-36154
OBJECT_ID      = 2025-286Q
CENTER_NAME    = EARTH
REF_FRAME      = TEME
TIME_SYSTEM    = UTC
MEAN_ELEMENT_THEORY = SGP/SGP4

EPOCH          = 2025-12-17T14:00:03.000384
MEAN_MOTION    = 15.85673539
ECCENTRICITY   = .00011064
INCLINATION    = 53.1557
RA_OF_ASC_NODE = 26.0468
ARG_OF_PERICENTER = 68.4209
MEAN_ANOMALY   = 121.3169

EPHEMERIS_TYPE = 0
CLASSIFICATION_TYPE = U
NORAD_CAT_ID   = 66939
ELEMENT_SET_NO = 999
REV_AT_EPOCH   = 277
BSTAR          = -.61985163E-2
MEAN_MOTION_DOT = -.1347738E-1
MEAN_MOTION_DDOT = 0

CCSDS_OMM_VERS = 2.0
CREATION_DATE  = 
ORIGINATOR     = 

OBJECT_NAME    = STARLINK-36121
OBJECT_ID      = 2025-286R
CENTER_NAME    = EARTH
REF_FRAME      = TEME
TIME_SYSTEM    = UTC
MEAN_ELEMENT_THEORY = SGP/SGP4

EPOCH          = 2025-12-17T14:00:03.000384
MEAN_MOTION    = 15.85694119
ECCENTRICITY   = .00009268
INCLINATION    = 53.1555
RA_OF_ASC_NODE = 26.0424
ARG_OF_PERICENTER = 68.6583
MEAN_ANOMALY   = 123.1287

EPHEMERIS_TYPE = 0
CLASSIFICATION_TYPE = U
NORAD_CAT_ID   = 66940
ELEMENT_SET_NO = 999
REV_AT_EPOCH   = 277
BSTAR          = -.62327379E-2
MEAN_MOTION_DOT = -.135532E-1
MEAN_MOTION_DDOT = 0

CCSDS_OMM_VERS = 2.0
CREATION_DATE  = 
ORIGINATOR     = 

OBJECT_NAME    = STARLINK-36088
OBJECT_ID      = 2025-286S
CENTER_NAME    = EARTH
REF_FRAME      = TEME
TIME_SYSTEM    = UTC
MEAN_ELEMENT_THEORY = SGP/SGP4

EPOCH          = 2025-12-17T14:00:03.000384
MEAN_MOTION    = 15.85655521
ECCENTRICITY   = .00010497
INCLINATION    = 53.1556
RA_OF_ASC_NODE = 26.0510
ARG_OF_PERICENTER = 65.8084
MEAN_ANOMALY   = 121.7922

EPHEMERIS_TYPE = 0
CLASSIFICATION_TYPE = U
NORAD_CAT_ID   = 66941
ELEMENT_SET_NO = 999
REV_AT_EPOCH   = 277
BSTAR          = -.61635168E-2
MEAN_MOTION_DOT = -.1339995E-1
MEAN_MOTION_DDOT = 0

CCSDS_OMM_VERS = 2.0
CREATION_DATE  = 
ORIGINATOR     = 

OBJECT_NAME    = STARLINK-36100
OBJECT_ID      = 2025-286T
CENTER_NAME    = EARTH
REF_FRAME      = TEME
TIME_SYSTEM    = UTC
MEAN_ELEMENT_THEORY = SGP/SGP4

EPOCH          = 2025-12-17T14:00:03.000384
MEAN_MOTION    = 15.85714556
ECCENTRICITY   = .00008645
INCLINATION    = 53.1555
RA_OF_ASC_NODE = 26.0378
ARG_OF_PERICENTER = 73.8015
MEAN_ANOMALY   = 120.1183

EPHEMERIS_TYPE = 0
CLASSIFICATION_TYPE = U
NORAD_CAT_ID   = 66942
ELEMENT_SET_NO = 999
REV_AT_EPOCH   = 270
BSTAR          = -.62811455E-2
MEAN_MOTION_DOT = -.1365668E-1
MEAN_MOTION_DDOT = 0

CCSDS_OMM_VERS = 2.0
CREATION_DATE  = 
ORIGINATOR     = 

OBJECT_NAME    = STARLINK-36109
OBJECT_ID      = 2025-286U
CENTER_NAME    = EARTH
REF_FRAME      = TEME
TIME_SYSTEM    = UTC
MEAN_ELEMENT_THEORY = SGP/SGP4

EPOCH          = 2025-12-17T14:00:03.000384
MEAN_MOTION    = 15.85718349
ECCENTRICITY   = .00009045
INCLINATION    = 53.1553
RA_OF_ASC_NODE = 26.0326
ARG_OF_PERICENTER = 70.4379
MEAN_ANOMALY   = 125.9441

EPHEMERIS_TYPE = 0
CLASSIFICATION_TYPE = U
NORAD_CAT_ID   = 66943
ELEMENT_SET_NO = 999
REV_AT_EPOCH   = 270
BSTAR          = -.63166113E-2
MEAN_MOTION_DOT = -.1372647E-1
MEAN_MOTION_DDOT = 0

CCSDS_OMM_VERS = 2.0
CREATION_DATE  = 
ORIGINATOR     = 

OBJECT_NAME    = STARLINK-36112
OBJECT_ID      = 2025-286V
CENTER_NAME    = EARTH
REF_FRAME      = TEME
TIME_SYSTEM    = UTC
MEAN_ELEMENT_THEORY = SGP/SGP4

EPOCH          = 2025-12-17T14:00:03.000384
MEAN_MOTION    = 15.85735579
ECCENTRICITY   = .00009973
INCLINATION    = 53.1553
RA_OF_ASC_NODE = 26.0284
ARG_OF_PERICENTER = 68.9378
MEAN_ANOMALY   = 129.4784

EPHEMERIS_TYPE = 0
CLASSIFICATION_TYPE = U
NORAD_CAT_ID   = 66944
ELEMENT_SET_NO = 999
REV_AT_EPOCH   = 277
BSTAR          = -.63087976E-2
MEAN_MOTION_DOT = -.1372243E-1
MEAN_MOTION_DDOT = 0

